start=new Date('2022-06-24T00:00:00.000Z').valueOf();
sats=[{"FILE":"3500539","BSTAR":"-0.00004673400000","REV_AT_EPOCH":"6813","CLASSIFICATION_TYPE":"U","COUNTRY_CODE":"US","PERIAPSIS":"546.132","MEAN_MOTION_DDOT":"0.0000000000000","APOAPSIS":"548.223","MEAN_ANOMALY":"297.7513","OBJECT_TYPE":"PAYLOAD","TIME_SYSTEM":"UTC","NORAD_CAT_ID":"48146","ECCENTRICITY":"0.00015100","SEMIMAJOR_AXIS":"6925.312","REF_FRAME":"TEME","TLE_LINE2":"2 48146  53.0535 136.1633 0001510  62.3629 297.7513 15.06411850 68137","DECAY_DATE":null,"OBJECT_NAME":"STARLINK-2489","TLE_LINE1":"1 48146U 21027BG  22174.31088726 -.00000978  00000-0 -46734-4 0  9990","GP_ID":"206684467","OBJECT_ID":"2021-027BG","ARG_OF_PERICENTER":"62.3629","SITE":"AFETR","MEAN_MOTION":"15.06411850","LAUNCH_DATE":"2021-04-07","ELEMENT_SET_NO":"999","EPHEMERIS_TYPE":"0","CENTER_NAME":"EARTH","MEAN_MOTION_DOT":"-0.00000978","MEAN_ELEMENT_THEORY":"SGP4","EPOCH":"2022-06-23T07:27:40.659264","RCS_SIZE":"LARGE","INCLINATION":"53.0535","PERIOD":"95.591","RA_OF_ASC_NODE":"136.1633"},{"LAUNCH_DATE":"2021-04-07","CENTER_NAME":"EARTH","EPHEMERIS_TYPE":"0","ELEMENT_SET_NO":"999","GP_ID":"206691310","ARG_OF_PERICENTER":"55.0134","OBJECT_ID":"2021-027BH","MEAN_MOTION":"15.06396324","SITE":"AFETR","DECAY_DATE":null,"TLE_LINE1":"1 48147U 21027BH  22174.64031535  .00000491  00000-0  51893-4 0  9993","OBJECT_NAME":"STARLINK-2490","TLE_LINE2":"2 48147  53.0544 139.6799 0002118  55.0134 305.1054 15.06396324 67719","PERIOD":"95.592","INCLINATION":"53.0544","RA_OF_ASC_NODE":"139.6799","MEAN_ELEMENT_THEORY":"SGP4","RCS_SIZE":"LARGE","EPOCH":"2022-06-23T15:22:03.246240","MEAN_MOTION_DOT":"0.00000491","MEAN_ANOMALY":"305.1054","OBJECT_TYPE":"PAYLOAD","APOAPSIS":"548.692","MEAN_MOTION_DDOT":"0.0000000000000","PERIAPSIS":"545.758","CLASSIFICATION_TYPE":"U","COUNTRY_CODE":"US","FILE":"3500679","REV_AT_EPOCH":"6771","BSTAR":"0.00005189300000","NORAD_CAT_ID":"48147","ECCENTRICITY":"0.00021180","REF_FRAME":"TEME","SEMIMAJOR_AXIS":"6925.360","TIME_SYSTEM":"UTC"},{"TLE_LINE2":"2 48148  53.0521 134.8078 0001626  60.7370 299.3781 15.06394273 67778","DECAY_DATE":null,"TLE_LINE1":"1 48148U 21027BJ  22174.60945069  .00000807  00000-0  73065-4 0  9992","OBJECT_NAME":"STARLINK-2491","ARG_OF_PERICENTER":"60.7370","GP_ID":"206691312","OBJECT_ID":"2021-027BJ","MEAN_MOTION":"15.06394273","SITE":"AFETR","LAUNCH_DATE":"2021-04-07","EPHEMERIS_TYPE":"0","CENTER_NAME":"EARTH","ELEMENT_SET_NO":"999","MEAN_MOTION_DOT":"0.00000807","MEAN_ELEMENT_THEORY":"SGP4","RCS_SIZE":"MEDIUM","EPOCH":"2022-06-23T14:37:36.539616","PERIOD":"95.593","INCLINATION":"53.0521","RA_OF_ASC_NODE":"134.8078","FILE":"3500679","REV_AT_EPOCH":"6777","BSTAR":"0.00007306500000","CLASSIFICATION_TYPE":"U","COUNTRY_CODE":"US","APOAPSIS":"548.357","MEAN_MOTION_DDOT":"0.0000000000000","PERIAPSIS":"546.105","OBJECT_TYPE":"PAYLOAD","MEAN_ANOMALY":"299.3781","TIME_SYSTEM":"UTC","ECCENTRICITY":"0.00016260","NORAD_CAT_ID":"48148","SEMIMAJOR_AXIS":"6925.366","REF_FRAME":"TEME"},{"COUNTRY_CODE":"US","CLASSIFICATION_TYPE":"U","BSTAR":"0.00012029000000","REV_AT_EPOCH":"6840","FILE":"3500539","OBJECT_TYPE":"PAYLOAD","MEAN_ANOMALY":"298.4385","PERIAPSIS":"546.171","MEAN_MOTION_DDOT":"0.0000000000000","APOAPSIS":"548.300","SEMIMAJOR_AXIS":"6925.370","REF_FRAME":"TEME","ECCENTRICITY":"0.00015370","NORAD_CAT_ID":"48149","TIME_SYSTEM":"UTC","OBJECT_NAME":"STARLINK-2492","TLE_LINE1":"1 48149U 21027BK  22174.29061671  .00001510  00000-0  12029-3 0  9990","DECAY_DATE":null,"TLE_LINE2":"2 48149  53.0556 116.2397 0001537  61.6759 298.4385 15.06392842 68408","ELEMENT_SET_NO":"999","CENTER_NAME":"EARTH","EPHEMERIS_TYPE":"0","LAUNCH_DATE":"2021-04-07","SITE":"AFETR","MEAN_MOTION":"15.06392842","ARG_OF_PERICENTER":"61.6759","GP_ID":"206685718","OBJECT_ID":"2021-027BK","MEAN_MOTION_DOT":"0.00001510","RA_OF_ASC_NODE":"116.2397","INCLINATION":"53.0556","PERIOD":"95.593","EPOCH":"2022-06-23T06:58:29.283744","RCS_SIZE":"MEDIUM","MEAN_ELEMENT_THEORY":"SGP4"},{"COUNTRY_CODE":"US","CLASSIFICATION_TYPE":"U","REV_AT_EPOCH":"6800","BSTAR":"0.00008947600000","FILE":"3500792","OBJECT_TYPE":"PAYLOAD","MEAN_ANOMALY":"290.8310","APOAPSIS":"548.209","MEAN_MOTION_DDOT":"0.0000000000000","PERIAPSIS":"546.267","SEMIMAJOR_AXIS":"6925.373","REF_FRAME":"TEME","ECCENTRICITY":"0.00014020","NORAD_CAT_ID":"48150","TIME_SYSTEM":"UTC","TLE_LINE1":"1 48150U 21027BL  22174.22795557  .00001051  00000-0  89476-4 0  9993","OBJECT_NAME":"STARLINK-2493","DECAY_DATE":null,"TLE_LINE2":"2 48150  53.0534 116.5275 0001402  69.2829 290.8310 15.06392137 68004","EPHEMERIS_TYPE":"0","CENTER_NAME":"EARTH","ELEMENT_SET_NO":"999","LAUNCH_DATE":"2021-04-07","SITE":"AFETR","MEAN_MOTION":"15.06392137","ARG_OF_PERICENTER":"69.2829","GP_ID":"206694177","OBJECT_ID":"2021-027BL","MEAN_MOTION_DOT":"0.00001051","RA_OF_ASC_NODE":"116.5275","PERIOD":"95.593","INCLINATION":"53.0534","EPOCH":"2022-06-23T05:28:15.361248","RCS_SIZE":"LARGE","MEAN_ELEMENT_THEORY":"SGP4"},{"OBJECT_TYPE":"PAYLOAD","MEAN_ANOMALY":"299.7216","MEAN_MOTION_DDOT":"0.0000000000000","PERIAPSIS":"545.759","APOAPSIS":"548.730","COUNTRY_CODE":"US","CLASSIFICATION_TYPE":"U","BSTAR":"-0.00000303770000","REV_AT_EPOCH":"6805","FILE":"3500680","REF_FRAME":"TEME","SEMIMAJOR_AXIS":"6925.380","ECCENTRICITY":"0.00021450","NORAD_CAT_ID":"48151","TIME_SYSTEM":"UTC","ELEMENT_SET_NO":"999","EPHEMERIS_TYPE":"0","CENTER_NAME":"EARTH","LAUNCH_DATE":"2021-04-07","MEAN_MOTION":"15.06389826","SITE":"AFETR","GP_ID":"206691581","ARG_OF_PERICENTER":"60.3986","OBJECT_ID":"2021-027BM","OBJECT_NAME":"STARLINK-2503","TLE_LINE1":"1 48151U 21027BM  22174.56337942 -.00000327  00000-0 -30377-5 0  9995","DECAY_DATE":null,"TLE_LINE2":"2 48151  53.0549 115.0205 0002145  60.3986 299.7216 15.06389826 68058","RA_OF_ASC_NODE":"115.0205","INCLINATION":"53.0549","PERIOD":"95.593","EPOCH":"2022-06-23T13:31:15.981888","RCS_SIZE":"LARGE","MEAN_ELEMENT_THEORY":"SGP4","MEAN_MOTION_DOT":"-0.00000327"},{"MEAN_MOTION_DOT":"-0.00000150","INCLINATION":"53.0559","PERIOD":"95.592","RA_OF_ASC_NODE":"10.4349","MEAN_ELEMENT_THEORY":"SGP4","RCS_SIZE":"LARGE","EPOCH":"2022-06-23T11:19:13.719648","DECAY_DATE":null,"OBJECT_NAME":"STARLINK-2567","TLE_LINE1":"1 48276U 21036A   22174.47168657 -.00000150  00000-0  88519-5 0  9992","TLE_LINE2":"2 48276  53.0559  10.4349 0001467  66.6444 293.4700 15.06395110 64540","LAUNCH_DATE":"2021-04-29","ELEMENT_SET_NO":"999","EPHEMERIS_TYPE":"0","CENTER_NAME":"EARTH","OBJECT_ID":"2021-036A","GP_ID":"206684481","ARG_OF_PERICENTER":"66.6444","MEAN_MOTION":"15.06395110","SITE":"AFETR","ECCENTRICITY":"0.00014670","NORAD_CAT_ID":"48276","SEMIMAJOR_AXIS":"6925.364","REF_FRAME":"TEME","TIME_SYSTEM":"UTC","CLASSIFICATION_TYPE":"U","COUNTRY_CODE":"US","FILE":"3500539","BSTAR":"0.00000885190000","REV_AT_EPOCH":"6454","OBJECT_TYPE":"PAYLOAD","MEAN_ANOMALY":"293.4700","MEAN_MOTION_DDOT":"0.0000000000000","PERIAPSIS":"546.213","APOAPSIS":"548.244"},{"MEAN_ANOMALY":"263.2298","OBJECT_TYPE":"PAYLOAD","MEAN_MOTION_DDOT":"0.0000000000000","PERIAPSIS":"546.273","APOAPSIS":"548.160","COUNTRY_CODE":"US","CLASSIFICATION_TYPE":"U","BSTAR":"0.00005553800000","REV_AT_EPOCH":"6565","FILE":"3500596","REF_FRAME":"TEME","SEMIMAJOR_AXIS":"6925.351","ECCENTRICITY":"0.00013620","NORAD_CAT_ID":"48277","TIME_SYSTEM":"UTC","ELEMENT_SET_NO":"999","CENTER_NAME":"EARTH","EPHEMERIS_TYPE":"0","LAUNCH_DATE":"2021-04-29","SITE":"AFETR","MEAN_MOTION":"15.06399112","ARG_OF_PERICENTER":"96.8846","GP_ID":"206689734","OBJECT_ID":"2021-036B","OBJECT_NAME":"STARLINK-2569","TLE_LINE1":"1 48277U 21036B   22174.73846386  .00000546  00000-0  55538-4 0  9996","DECAY_DATE":null,"TLE_LINE2":"2 48277  53.0557 334.2421 0001362  96.8846 263.2298 15.06399112 65658","RA_OF_ASC_NODE":"334.2421","INCLINATION":"53.0557","PERIOD":"95.592","RCS_SIZE":"LARGE","EPOCH":"2022-06-23T17:43:23.277504","MEAN_ELEMENT_THEORY":"SGP4","MEAN_MOTION_DOT":"0.00000546"},{"REF_FRAME":"TEME","SEMIMAJOR_AXIS":"6925.371","NORAD_CAT_ID":"48278","ECCENTRICITY":"0.00015380","TIME_SYSTEM":"UTC","MEAN_ANOMALY":"302.5314","OBJECT_TYPE":"PAYLOAD","MEAN_MOTION_DDOT":"0.0000000000000","PERIAPSIS":"546.171","APOAPSIS":"548.301","COUNTRY_CODE":"US","CLASSIFICATION_TYPE":"U","BSTAR":"0.00001239600000","REV_AT_EPOCH":"6482","FILE":"3500539","RA_OF_ASC_NODE":"350.3241","INCLINATION":"53.0541","PERIOD":"95.593","EPOCH":"2022-06-23T12:14:58.354368","RCS_SIZE":"LARGE","MEAN_ELEMENT_THEORY":"SGP4","MEAN_MOTION_DOT":"-0.00000097","ELEMENT_SET_NO":"999","EPHEMERIS_TYPE":"0","CENTER_NAME":"EARTH","LAUNCH_DATE":"2021-04-29","SITE":"AFETR","MEAN_MOTION":"15.06392680","GP_ID":"206684982","OBJECT_ID":"2021-036C","ARG_OF_PERICENTER":"57.5824","OBJECT_NAME":"STARLINK-2543","TLE_LINE1":"1 48278U 21036C   22174.51039762 -.00000097  00000-0  12396-4 0  9992","DECAY_DATE":null,"TLE_LINE2":"2 48278  53.0541 350.3241 0001538  57.5824 302.5314 15.06392680 64823"},{"RCS_SIZE":"LARGE","EPOCH":"2022-06-23T18:26:29.937984","MEAN_ELEMENT_THEORY":"SGP4","RA_OF_ASC_NODE":"349.1098","INCLINATION":"53.0568","PERIOD":"95.592","MEAN_MOTION_DOT":"-0.00000327","SITE":"AFETR","MEAN_MOTION":"15.06400140","GP_ID":"206692452","OBJECT_ID":"2021-036D","ARG_OF_PERICENTER":"64.8603","ELEMENT_SET_NO":"999","CENTER_NAME":"EARTH","EPHEMERIS_TYPE":"0","LAUNCH_DATE":"2021-04-29","TLE_LINE2":"2 48279  53.0568 349.1098 0001673  64.8603 295.2560 15.06400140 65446","OBJECT_NAME":"STARLINK-2580","TLE_LINE1":"1 48279U 21036D   22174.76840206 -.00000327  00000-0 -30517-5 0  9996","DECAY_DATE":null,"TIME_SYSTEM":"UTC","SEMIMAJOR_AXIS":"6925.348","REF_FRAME":"TEME","ECCENTRICITY":"0.00016730","NORAD_CAT_ID":"48279","MEAN_MOTION_DDOT":"0.0000000000000","PERIAPSIS":"546.055","APOAPSIS":"548.372","MEAN_ANOMALY":"295.2560","OBJECT_TYPE":"PAYLOAD","BSTAR":"-0.00000305170000","REV_AT_EPOCH":"6544","FILE":"3500732","COUNTRY_CODE":"US","CLASSIFICATION_TYPE":"U"}];
